[{"OBJECT_NAME":"STARLINK-1172","OBJECT_ID":"2020-006AG","EPOCH":"2026-03-09T16:58:56.255520","MEAN_MOTION":15.30183132,"ECCENTRICITY":0.00014955,"INCLINATION":53.1578,"RA_OF_ASC_NODE":257.7398,"ARG_OF_PERICENTER":86.4728,"MEAN_ANOMALY":273.6444,"EPHEMERIS_TYPE":0,"CLASSIFICATION_TYPE":"U","NORAD_CAT_ID":45074,"ELEMENT_SET_NO":999,"REV_AT_EPOCH":33687,"BSTAR":-3.1998599e-5,"MEAN_MOTION_DOT":-1.306e-5,"MEAN_MOTION_DDOT":0},{"OBJECT_NAME":"CUBESX-HSE 3 (RS42S)","OBJECT_ID":"2023-091N","EPOCH":"2026-03-09T22:57:25.321248","MEAN_MOTION":15.286147,"ECCENTRICITY":0.00127191,"INCLINATION":97.5203,"RA_OF_ASC_NODE":133.4295,"ARG_OF_PERICENTER":86.5376,"MEAN_ANOMALY":273.7318,"EPHEMERIS_TYPE":0,"CLASSIFICATION_TYPE":"U","NORAD_CAT_ID":57178,"ELEMENT_SET_NO":999,"REV_AT_EPOCH":14925,"BSTAR":0.00059055694,"MEAN_MOTION_DOT":0.00016417,"MEAN_MOTION_DDOT":0}]
